[{"OBJECT_NAME":"FORGESTAR-1","OBJECT_ID":"2025-135U","EPOCH":"2026-03-09T20:36:20.241504","MEAN_MOTION":15.22632363,"ECCENTRICITY":0.00019317,"INCLINATION":97.456,"RA_OF_ASC_NODE":185.1959,"ARG_OF_PERICENTER":126.9955,"MEAN_ANOMALY":233.1458,"EPHEMERIS_TYPE":0,"CLASSIFICATION_TYPE":"U","NORAD_CAT_ID":64546,"ELEMENT_SET_NO":999,"REV_AT_EPOCH":3978,"BSTAR":0.0004351723,"MEAN_MOTION_DOT":0.00010058,"MEAN_MOTION_DDOT":0},{"OBJECT_NAME":"SL-8 DEB","OBJECT_ID":"1977-059D","EPOCH":"2026-03-09T17:54:55.494432","MEAN_MOTION":15.2130551,"ECCENTRICITY":0.0004146,"INCLINATION":74.0432,"RA_OF_ASC_NODE":189.1557,"ARG_OF_PERICENTER":2.1163,"MEAN_ANOMALY":118.2856,"EPHEMERIS_TYPE":0,"CLASSIFICATION_TYPE":"U","NORAD_CAT_ID":14818,"ELEMENT_SET_NO":999,"REV_AT_EPOCH":40248,"BSTAR":0.0014031002,"MEAN_MOTION_DOT":0.00031504,"MEAN_MOTION_DDOT":0}]
